[{"OBJECT_NAME":"SAUDICOMSAT 4","OBJECT_ID":"2007-012L","EPOCH":"2026-03-09T21:03:47.196576","MEAN_MOTION":14.64379004,"ECCENTRICITY":0.00628756,"INCLINATION":98.3883,"RA_OF_ASC_NODE":39.4922,"ARG_OF_PERICENTER":207.7023,"MEAN_ANOMALY":152.0825,"EPHEMERIS_TYPE":0,"CLASSIFICATION_TYPE":"U","NORAD_CAT_ID":31127,"ELEMENT_SET_NO":999,"REV_AT_EPOCH":675,"BSTAR":0.00016117094,"MEAN_MOTION_DOT":8.23e-6,"MEAN_MOTION_DDOT":0},{"OBJECT_NAME":"KINEIS-3E","OBJECT_ID":"2024-172C","EPOCH":"2026-03-09T18:10:24.014496","MEAN_MOTION":14.72309398,"ECCENTRICITY":0.0001612,"INCLINATION":98.0288,"RA_OF_ASC_NODE":159.764,"ARG_OF_PERICENTER":104.7696,"MEAN_ANOMALY":255.369,"EPHEMERIS_TYPE":0,"CLASSIFICATION_TYPE":"U","NORAD_CAT_ID":61222,"ELEMENT_SET_NO":999,"REV_AT_EPOCH":7872,"BSTAR":0.00046314644,"MEAN_MOTION_DOT":2.879e-5,"MEAN_MOTION_DDOT":0}]
