SAUDICOMSAT 4           
1 31127U 07012L   26068.87762958  .00000823  00000+0  16117-3 0  9999
2 31127  98.3883  39.4922 0062876 207.7023 152.0825 14.64379004  6753
KINEIS-3E               
1 61222U 24172C   26068.75722239  .00002879  00000+0  46315-3 0  9995
2 61222  98.0288 159.7640 0001612 104.7696 255.3690 14.72309398 78725
